SENTINEL-6              
1 46984U 20086A   24005.58448654 -.00000027  00000+0  14708-3 0  9994
2 46984  66.0390 191.0737 0007640 269.7027  90.3112 12.80929897145871
